[{"OBJECT_NAME":"TEVEL2-1","OBJECT_ID":"2025-052H","EPOCH":"2026-03-09T15:32:51.927072","MEAN_MOTION":15.30341923,"ECCENTRICITY":0.0004767,"INCLINATION":97.3991,"RA_OF_ASC_NODE":324.7682,"ARG_OF_PERICENTER":104.8919,"MEAN_ANOMALY":255.2849,"EPHEMERIS_TYPE":0,"CLASSIFICATION_TYPE":"U","NORAD_CAT_ID":63217,"ELEMENT_SET_NO":999,"REV_AT_EPOCH":5485,"BSTAR":0.000706,"MEAN_MOTION_DOT":0.00020683,"MEAN_MOTION_DDOT":0},{"OBJECT_NAME":"STARLINK-34543","OBJECT_ID":"2025-157Y","EPOCH":"2026-03-09T23:30:44.880768","MEAN_MOTION":15.30208791,"ECCENTRICITY":0.00012146,"INCLINATION":53.1597,"RA_OF_ASC_NODE":344.6418,"ARG_OF_PERICENTER":83.3354,"MEAN_ANOMALY":276.7785,"EPHEMERIS_TYPE":0,"CLASSIFICATION_TYPE":"U","NORAD_CAT_ID":64926,"ELEMENT_SET_NO":999,"REV_AT_EPOCH":3611,"BSTAR":0.00071031824,"MEAN_MOTION_DOT":0.00020743,"MEAN_MOTION_DDOT":0}]
